{"type": "FeatureCollection", "features": [ {"type": "Feature", "properties": {"norad_id": 36073, "name": "COSMOS 2251 DEB", "group": "cosmos-2251-debris", "lat": 57.937366875152065, "lon": 119.94037396910849, "alt_km": 766.9556474152687, "timestamp": "2025-12-10T05:46:14.223830+00:00", "meta": {"OBJECT_NAME": "COSMOS 2251 DEB", "OBJECT_ID": "1993-036AYL", "EPOCH": "2025-12-08T16:24:49.058496", "MEAN_MOTION": 14.34945626, "ECCENTRICITY": 0.00236644, "INCLINATION": 74.0317, "RA_OF_ASC_NODE": 329.9936, "ARG_OF_PERICENTER": 39.1653, "MEAN_ANOMALY": 321.1206, "EPHEMERIS_TYPE": 0, "CLASSIFICATION_TYPE": "U", "NORAD_CAT_ID": 36073, "ELEMENT_SET_NO": 999, "REV_AT_EPOCH": 70149, "BSTAR": 0.00044447159, "MEAN_MOTION_DOT": 1.243e-05, "MEAN_MOTION_DDOT": 0}, "tle": {"line1": "1 36073U 93036AYL 25342.68390114  .00001243  00000+0  44447-3 0  9993", "line2": "2 36073  74.0317 329.9936 0023664  39.1653 321.1206 14.34945626701492"}}, "geometry": {"type": "Point", "coordinates": [119.94037396910849, 57.937366875152065]}}, {"type": "Feature", "properties": {"norad_id": 36074, "name": "COSMOS 2251 DEB", "group": "cosmos-2251-debris", "lat": 3.291691958527237, "lon": 164.20438425069173, "alt_km": 752.4991885999807, "timestamp": "2025-12-10T05:46:14.223840+00:00", "meta": {"OBJECT_NAME": "COSMOS 2251 DEB", "OBJECT_ID": "1993-036AYM", "EPOCH": "2025-12-04T07:35:54.379968", "MEAN_MOTION": 14.43651509, "ECCENTRICITY": 0.0041318, "INCLINATION": 73.9929, "RA_OF_ASC_NODE": 356.1864, "ARG_OF_PERICENTER": 90.6412, "MEAN_ANOMALY": 269.9479, "EPHEMERIS_TYPE": 0, "CLASSIFICATION_TYPE": "U", "NORAD_CAT_ID": 36074, "ELEMENT_SET_NO": 999, "REV_AT_EPOCH": 85788, "BSTAR": 0.0017767, "MEAN_MOTION_DOT": 6.071e-05, "MEAN_MOTION_DDOT": 0}, "tle": {"line1": "1 36074U 93036AYM 25338.31660162  .00006071  00000+0  17767-2 0  9990", "line2": "2 36074  73.9929 356.1864 0041318  90.6412 269.9479 14.43651509857883"}}, "geometry": {"type": "Point", "coordinates": [164.20438425069173, 3.291691958527237]}}, {"type": "Feature", "properties": {"norad_id": 36366, "name": "COSMOS 2251 DEB", "group": "cosmos-2251-debris", "lat": -21.90293504608509, "lon": 104.22304004836101, "alt_km": 800.2714426279172, "timestamp": "2025-12-10T05:46:14.223850+00:00", "meta": {"OBJECT_NAME": "COSMOS 2251 DEB", "OBJECT_ID": "1993-036AYT", "EPOCH": "2025-12-09T13:44:37.159584", "MEAN_MOTION": 14.33338219, "ECCENTRICITY": 0.0090898, "INCLINATION": 74.0656, "RA_OF_ASC_NODE": 278.8454, "ARG_OF_PERICENTER": 307.7057, "MEAN_ANOMALY": 51.5877, "EPHEMERIS_TYPE": 0, "CLASSIFICATION_TYPE": "U", "NORAD_CAT_ID": 36366, "ELEMENT_SET_NO": 999, "REV_AT_EPOCH": 86243, "BSTAR": 0.0032091, "MEAN_MOTION_DOT": 9.245e-05, "MEAN_MOTION_DDOT": 0}, "tle": {"line1": "1 36366U 93036AYT 25343.57265231  .00009245  00000+0  32091-2 0  9999", "line2": "2 36366  74.0656 278.8454 0090898 307.7057  51.5877 14.33338219862438"}}, "geometry": {"type": "Point", "coordinates": [104.22304004836101, -21.90293504608509]}}, {"type": "Feature", "properties": {"norad_id": 36367, "name": "COSMOS 2251 DEB", "group": "cosmos-2251-debris", "lat": -53.77611361791255, "lon": -147.26128327709665, "alt_km": 757.0724078213052, "timestamp": "2025-12-10T05:46:14.223860+00:00", "meta": {"OBJECT_NAME": "COSMOS 2251 DEB", "OBJECT_ID": "1993-036AYU", "EPOCH": "2025-12-09T10:58:55.267104", "MEAN_MOTION": 13.86303208, "ECCENTRICITY": 0.02625076, "INCLINATION": 74.1006, "RA_OF_ASC_NODE": 236.9567, "ARG_OF_PERICENTER": 310.5839, "MEAN_ANOMALY": 47.2703, "EPHEMERIS_TYPE": 0, "CLASSIFICATION_TYPE": "U", "NORAD_CAT_ID": 36367, "ELEMENT_SET_NO": 999, "REV_AT_EPOCH": 57484, "BSTAR": 0.0025463502, "MEAN_MOTION_DOT": 3.836e-05, "MEAN_MOTION_DDOT": 0}, "tle": {"line1": "1 36367U 93036AYU 25343.45758411  .00003836  00000+0  25464-2 0  9990", "line2": "2 36367  74.1006 236.9567 0262507 310.5839  47.2703 13.86303208574849"}}, "geometry": {"type": "Point", "coordinates": [-147.26128327709665, -53.77611361791255]}}, {"type": "Feature", "properties": {"norad_id": 36369, "name": "COSMOS 2251 DEB", "group": "cosmos-2251-debris", "lat": 37.80345618850399, "lon": 88.43775641561649, "alt_km": 650.3315874840118, "timestamp": "2025-12-10T05:46:14.223871+00:00", "meta": {"OBJECT_NAME": "COSMOS 2251 DEB", "OBJECT_ID": "1993-036AYW", "EPOCH": "2025-12-08T12:51:14.336640", "MEAN_MOTION": 14.73446953, "ECCENTRICITY": 0.00117103, "INCLINATION": 74.038, "RA_OF_ASC_NODE": 78.9305, "ARG_OF_PERICENTER": 158.6263, "MEAN_ANOMALY": 201.5401, "EPHEMERIS_TYPE": 0, "CLASSIFICATION_TYPE": "U", "NORAD_CAT_ID": 36369, "ELEMENT_SET_NO": 999, "REV_AT_EPOCH": 85860, "BSTAR": 0.0020709111, "MEAN_MOTION_DOT": 0.0001345, "MEAN_MOTION_DDOT": 0}, "tle": {"line1": "1 36369U 93036AYW 25342.53558260  .00013450  00000+0  20709-2 0  9990", "line2": "2 36369  74.0380  78.9305 0011710 158.6263 201.5401 14.73446953858600"}}, "geometry": {"type": "Point", "coordinates": [88.43775641561649, 37.80345618850399]}}, {"type": "Feature", "properties": {"norad_id": 36371, "name": "COSMOS 2251 DEB", "group": "cosmos-2251-debris", "lat": -22.410160530900864, "lon": 159.60077213755588, "alt_km": 669.251823758922, "timestamp": "2025-12-10T05:46:14.223880+00:00", "meta": {"OBJECT_NAME": "COSMOS 2251 DEB", "OBJECT_ID": "1993-036AYY", "EPOCH": "2025-12-07T19:05:47.723136", "MEAN_MOTION": 14.70448722, "ECCENTRICITY": 0.00102244, "INCLINATION": 74.0118, "RA_OF_ASC_NODE": 171.1395, "ARG_OF_PERICENTER": 209.6534, "MEAN_ANOMALY": 150.4058, "EPHEMERIS_TYPE": 0, "CLASSIFICATION_TYPE": "U", "NORAD_CAT_ID": 36371, "ELEMENT_SET_NO": 999, "REV_AT_EPOCH": 71372, "BSTAR": 0.0029870702, "MEAN_MOTION_DOT": 0.00018131, "MEAN_MOTION_DDOT": 0}, "tle": {"line1": "1 36371U 93036AYY 25341.79569124  .00018131  00000+0  29871-2 0  9991", "line2": "2 36371  74.0118 171.1395 0010224 209.6534 150.4058 14.70448722713720"}}, "geometry": {"type": "Point", "coordinates": [159.60077213755588, -22.410160530900864]}}, {"type": "Feature", "properties": {"norad_id": 36379, "name": "COSMOS 2251 DEB", "group": "cosmos-2251-debris", "lat": 73.9792842601222, "lon": 38.260766104216565, "alt_km": 732.5141906003928, "timestamp": "2025-12-10T05:46:14.223891+00:00", "meta": {"OBJECT_NAME": "COSMOS 2251 DEB", "OBJECT_ID": "1993-036AZG", "EPOCH": "2025-12-08T04:58:44.675328", "MEAN_MOTION": 14.36066652, "ECCENTRICITY": 0.00445661, "INCLINATION": 74.0122, "RA_OF_ASC_NODE": 315.1569, "ARG_OF_PERICENTER": 85.444, "MEAN_ANOMALY": 297.6264, "EPHEMERIS_TYPE": 0, "CLASSIFICATION_TYPE": "U", "NORAD_CAT_ID": 36379, "ELEMENT_SET_NO": 999, "REV_AT_EPOCH": 64763, "BSTAR": 0.0005365522, "MEAN_MOTION_DOT": 1.553e-05, "MEAN_MOTION_DDOT": 0}, "tle": {"line1": "1 36379U 93036AZG 25342.20746152  .00001553  00000+0  53655-3 0  9992", "line2": "2 36379  74.0122 315.1569 0044566  85.4440 297.6264 14.36066652647637"}}, "geometry": {"type": "Point", "coordinates": [38.260766104216565, 73.9792842601222]}}, {"type": "Feature", "properties": {"norad_id": 36385, "name": "COSMOS 2251 DEB", "group": "cosmos-2251-debris", "lat": 67.57683238768281, "lon": -156.40691898849676, "alt_km": 661.708749476059, "timestamp": "2025-12-10T05:46:14.223902+00:00", "meta": {"OBJECT_NAME": "COSMOS 2251 DEB", "OBJECT_ID": "1993-036AZN", "EPOCH": "2025-12-09T11:30:11.459520", "MEAN_MOTION": 14.7246814, "ECCENTRICITY": 0.0141254, "INCLINATION": 73.9696, "RA_OF_ASC_NODE": 160.9132, "ARG_OF_PERICENTER": 336.0399, "MEAN_ANOMALY": 23.4239, "EPHEMERIS_TYPE": 0, "CLASSIFICATION_TYPE": "U", "NORAD_CAT_ID": 36385, "ELEMENT_SET_NO": 999, "REV_AT_EPOCH": 85054, "BSTAR": 0.0016661542, "MEAN_MOTION_DOT": 0.00012368, "MEAN_MOTION_DDOT": 0}, "tle": {"line1": "1 36385U 93036AZN 25343.47929930  .00012368  00000+0  16662-2 0  9998", "line2": "2 36385  73.9696 160.9132 0141254 336.0399  23.4239 14.72468140850541"}}, "geometry": {"type": "Point", "coordinates": [-156.40691898849676, 67.57683238768281]}}, {"type": "Feature", "properties": {"norad_id": 36420, "name": "COSMOS 2251 DEB", "group": "cosmos-2251-debris", "lat": -37.50371129340603, "lon": -92.61405052944824, "alt_km": 766.1449395938535, "timestamp": "2025-12-10T05:46:14.223912+00:00", "meta": {"OBJECT_NAME": "COSMOS 2251 DEB", "OBJECT_ID": "1993-036AZT", "EPOCH": "2025-12-09T05:12:09.080064", "MEAN_MOTION": 14.36895704, "ECCENTRICITY": 0.001793, "INCLINATION": 74.0374, "RA_OF_ASC_NODE": 281.9559, "ARG_OF_PERICENTER": 10.5601, "MEAN_ANOMALY": 57.255, "EPHEMERIS_TYPE": 0, "CLASSIFICATION_TYPE": "U", "NORAD_CAT_ID": 36420, "ELEMENT_SET_NO": 999, "REV_AT_EPOCH": 84986, "BSTAR": 0.00029505, "MEAN_MOTION_DOT": 8.48e-06, "MEAN_MOTION_DDOT": 0}, "tle": {"line1": "1 36420U 93036AZT 25343.21677176  .00000848  00000+0  29505-3 0  9993", "line2": "2 36420  74.0374 281.9559 0017930  10.5601  57.2550 14.36895704849860"}}, "geometry": {"type": "Point", "coordinates": [-92.61405052944824, -37.50371129340603]}}, {"type": "Feature", "properties": {"norad_id": 36430, "name": "COSMOS 2251 DEB", "group": "cosmos-2251-debris", "lat": 59.64545686732135, "lon": 142.39643731578508, "alt_km": 858.733954155914, "timestamp": "2025-12-10T05:46:14.223922+00:00", "meta": {"OBJECT_NAME": "COSMOS 2251 DEB", "OBJECT_ID": "1993-036BAD", "EPOCH": "2025-12-07T15:14:59.696160", "MEAN_MOTION": 14.27773173, "ECCENTRICITY": 0.00973352, "INCLINATION": 74.0036, "RA_OF_ASC_NODE": 117.7938, "ARG_OF_PERICENTER": 268.8676, "MEAN_ANOMALY": 90.1319, "EPHEMERIS_TYPE": 0, "CLASSIFICATION_TYPE": "U", "NORAD_CAT_ID": 36430, "ELEMENT_SET_NO": 999, "REV_AT_EPOCH": 64484, "BSTAR": 0.00083938099, "MEAN_MOTION_DOT": 2.154e-05, "MEAN_MOTION_DDOT": 0}, "tle": {"line1": "1 36430U 93036BAD 25341.63541315  .00002154  00000+0  83938-3 0  9995", "line2": "2 36430  74.0036 117.7938 0097335 268.8676  90.1319 14.27773173644845"}}, "geometry": {"type": "Point", "coordinates": [142.39643731578508, 59.64545686732135]}}]}